OBJECT_NAME,OBJECT_ID,EPOCH,MEAN_MOTION,ECCENTRICITY,INCLINATION,RA_OF_ASC_NODE,ARG_OF_PERICENTER,MEAN_ANOMALY,EPHEMERIS_TYPE,CLASSIFICATION_TYPE,NORAD_CAT_ID,ELEMENT_SET_NO,REV_AT_EPOCH,BSTAR,MEAN_MOTION_DOT,MEAN_MOTION_DDOT
BEIDOU-3S IGSO-1S (C31),2015-019A,2026-07-02T19:12:21.705408,1.00680073,.00768606,49.1798,295.2769,219.1125,144.2493,0,U,40549,999,4123,0,-.19E-5,0
GPS BIIF-10 (PRN 08),2015-033A,2026-07-20T15:03:02.403360,2.00554614,.0115459,53.9572,265.7061,30.2916,330.4391,0,U,40730,999,8066,0,-.33E-6,0
BEIDOU-3S M2S (C58),2015-037A,2026-07-20T14:44:33.848160,1.86231898,.0009587,54.8390,300.8947,256.5496,103.3784,0,U,40748,999,7474,0,-.1E-5,0
BEIDOU-3S M1S (C57),2015-037B,2026-07-20T06:44:12.505056,1.86254901,.0002619,54.8358,300.8934,62.6171,297.4444,0,U,40749,999,7474,0,-.99E-6,0
GSAT0206 (GALILEO 10),2015-045B,2026-07-20T07:20:29.624352,1.70473732,.0002088,54.9380,220.6893,330.0131,30.0144,0,U,40890,999,6760,0,.58E-6,0
GSAT-15 (GAGAN/PRN 139),2015-065A,2026-07-20T21:09:51.555744,1.00271852,.0003563,0.1030,263.5234,177.9274,268.1691,0,U,41028,999,3913,0,-.258E-5,0
GSAT0209 (GALILEO 12),2015-079A,2026-07-19T21:18:19.364832,1.70473671,.00046186,55.8457,100.3644,358.4074,1.6290,0,U,41174,999,6533,0,-.39E-6,0
GSAT0208 (GALILEO 11),2015-079B,2026-07-20T02:35:36.500640,1.70473574,.00042689,55.8443,100.3553,359.9028,0.1346,0,U,41175,999,6575,0,-.4E-6,0
IRNSS-1E,2016-003A,2026-07-20T14:09:53.350848,1.00275464,.0019305,33.3040,59.2648,176.2872,27.0964,0,U,41241,999,3841,0,-.317E-5,0
GPS BIIF-12 (PRN 32),2016-007A,2026-07-20T06:34:51.882240,2.00575239,.00966486,55.5443,88.1473,247.5757,111.4487,0,U,41328,999,7650,0,-.55E-6,0
COSMOS 2514 (751),2016-008A,2026-07-20T14:27:49.472352,2.13102623,.0012484,64.9994,311.8597,201.8566,158.1123,0,U,41330,999,8133,0,-.85E-6,0
BEIDOU-2 IGSO-6 (C13),2016-021A,2026-06-26T02:38:38.671584,1.00258926,.0057558,60.2385,37.9495,231.0163,137.2672,0,U,41434,999,3757,0,-.145E-5,0
IRNSS-1G,2016-027A,2026-07-20T13:53:38.632704,1.00268271,.0005917,5.2757,96.7017,13.1561,166.5437,0,U,41469,999,3751,0,-.338E-5,0
GSAT0211 (GALILEO 14),2016-030A,2026-07-20T05:33:31.703616,1.70473740,.00034438,55.0891,220.7852,318.9851,41.0285,0,U,41549,999,6323,0,.57E-6,0
GSAT0210 (GALILEO 13),2016-030B,2026-07-19T21:39:16.164288,1.70473957,.00047103,55.0878,220.7925,246.5746,113.4149,0,U,41550,999,6322,0,.55E-6,0
EUTELSAT 117 WEST B (WAAS/PRN 131),2016-038B,2026-07-20T15:59:43.243872,1.00270889,.0000168,0.0056,161.4813,8.5099,251.3833,0,U,41589,999,3699,0,-.12E-6,0
GSAT0207 (GALILEO 15),2016-069A,2026-07-20T04:20:33.093312,1.70473575,.0004478,55.5174,100.1729,340.2934,19.7267,0,U,41859,999,5996,0,-.41E-6,0
GSAT0212 (GALILEO 16),2016-069B,2026-07-20T00:49:26.255424,1.70473722,.0004344,55.5153,100.1719,11.9645,348.0834,0,U,41860,999,6021,0,-.4E-6,0
GSAT0213 (GALILEO 17),2016-069C,2026-07-19T19:33:27.323712,1.70474157,.00039031,55.5171,100.1861,321.1021,38.9078,0,U,41861,999,6007,0,-.39E-6,0
GSAT0214 (GALILEO 18),2016-069D,2026-07-20T13:08:47.620896,1.70473781,.0003154,55.5160,100.1583,334.9765,25.0447,0,U,41862,999,6021,0,-.43E-6,0
SES-15 (WAAS/PRN 133),2017-026A,2026-07-20T15:56:13.578720,1.00267833,.00005,0.0279,322.6965,133.6853,311.9461,0,U,42709,999,776,0,.59E-6,0
QZS-2 (QZSS/PRN 194),2017-028A,2026-07-20T11:09:48.083904,1.00275408,.075685,39.3796,242.6632,269.6615,95.8478,0,U,42738,999,796,0,-.138E-5,0
COSMOS 2522 (752),2017-055A,2026-07-20T10:33:59.589792,2.13101801,.0010885,64.0809,190.7524,240.6370,119.2556,0,U,42939,999,6868,0,.84E-6,0
QZS-4 (QZSS/PRN 195),2017-062A,2026-07-20T17:15:01.461024,1.00289508,.0746992,40.0883,343.0577,268.6754,84.8963,0,U,42965,999,3214,0,-.359E-5,0
BEIDOU-3 M1 (C19),2017-069A,2026-07-19T21:17:47.555808,1.86231171,.00091788,56.7214,62.0072,326.7417,33.2640,0,U,43001,999,5921,0,-.76E-6,0
BEIDOU-3 M2 (C20),2017-069B,2026-07-19T19:49:58.573632,1.86204093,.00059342,56.7156,62.0460,145.8292,214.2725,0,U,43002,999,5920,0,-.75E-6,0
GSAT0215 (GALILEO 19),2017-079A,2026-07-19T06:39:33.391584,1.70474412,.00037426,55.0670,220.6230,269.1143,90.8812,0,U,43055,999,5353,0,.52E-6,0
